[
    {
        "CCSDS_OMM_VERS": "3.0",
        "COMMENT": "GENERATED VIA SPACE-TRACK.ORG API",
        "CREATION_DATE": "2025-04-14T06:46:34",
        "ORIGINATOR": "18 SPCS",
        "OBJECT_NAME": "BEIDOU 3M7",
        "OBJECT_ID": "2018-029A",
        "CENTER_NAME": "EARTH",
        "REF_FRAME": "TEME",
        "TIME_SYSTEM": "UTC",
        "MEAN_ELEMENT_THEORY": "SGP4",
        "EPOCH": "2025-04-13T22:08:27.122496",
        "MEAN_MOTION": "1.86232958",
        "ECCENTRICITY": "0.00007590",
        "INCLINATION": "54.5770",
        "RA_OF_ASC_NODE": "314.9179",
        "ARG_OF_PERICENTER": "38.5748",
        "MEAN_ANOMALY": "321.4590",
        "EPHEMERIS_TYPE": "0",
        "CLASSIFICATION_TYPE": "U",
        "NORAD_CAT_ID": "43245",
        "ELEMENT_SET_NO": "999",
        "REV_AT_EPOCH": "4790",
        "BSTAR": "0.00000000000000",
        "MEAN_MOTION_DOT": "-0.00000065",
        "MEAN_MOTION_DDOT": "0.0000000000000",
        "SEMIMAJOR_AXIS": "27905.993",
        "PERIOD": "773.225",
        "APOAPSIS": "21529.976",
        "PERIAPSIS": "21525.740",
        "OBJECT_TYPE": "PAYLOAD",
        "RCS_SIZE": "LARGE",
        "COUNTRY_CODE": "PRC",
        "LAUNCH_DATE": "2018-03-29",
        "SITE": "XSC",
        "DECAY_DATE": null,
        "FILE": "4701411",
        "GP_ID": "285555939",
        "TLE_LINE0": "0 BEIDOU 3M7",
        "TLE_LINE1": "1 43245U 18029A   25103.92253614 -.00000065  00000-0  00000+0 0  9992",
        "TLE_LINE2": "2 43245  54.5770 314.9179 0000759  38.5748 321.4590  1.86232958 47906"
    }
]